[{"OBJECT_NAME":"STARLINK-3369","OBJECT_ID":"2022-005AQ","EPOCH":"2026-03-09T22:22:22.044576","MEAN_MOTION":15.18998951,"ECCENTRICITY":0.00032386,"INCLINATION":53.2137,"RA_OF_ASC_NODE":280.745,"ARG_OF_PERICENTER":175.5204,"MEAN_ANOMALY":184.5822,"EPHEMERIS_TYPE":0,"CLASSIFICATION_TYPE":"U","NORAD_CAT_ID":51142,"ELEMENT_SET_NO":999,"REV_AT_EPOCH":22901,"BSTAR":0.0020382455,"MEAN_MOTION_DOT":0.00043116,"MEAN_MOTION_DDOT":0},{"OBJECT_NAME":"TWILIGHT-1 OBJECT AN","OBJECT_ID":"2026-004AN","EPOCH":"2026-03-09T22:58:32.651040","MEAN_MOTION":15.18552159,"ECCENTRICITY":0.00068209,"INCLINATION":97.4577,"RA_OF_ASC_NODE":69.4904,"ARG_OF_PERICENTER":347.243,"MEAN_ANOMALY":12.863,"EPHEMERIS_TYPE":0,"CLASSIFICATION_TYPE":"U","NORAD_CAT_ID":67399,"ELEMENT_SET_NO":999,"REV_AT_EPOCH":870,"BSTAR":0.00026786599,"MEAN_MOTION_DOT":5.469e-5,"MEAN_MOTION_DDOT":0}]
